H1 CPF  1  DGF 2022 02 24 11  5551 larets     NONE      
H2   304206 5557    27944 2022 02 24 00 00 00 2022 03 03 00 00 00    30 1 1  0 0 0
H5  0.0650
H9
10 0 59638  57600.000000  0       3822664.923      -1179465.164       5819146.826
10 0 59638  57630.000000  0       3972871.861      -1294698.627       5692738.871
10 0 59638  57660.000000  0       4118560.077      -1409270.654       5560533.837
10 0 59638  57690.000000  0       4259584.776      -1523045.093       5422665.388
10 0 59638  57720.000000  0       4395806.412      -1635885.936       5279272.986
10 0 59638  57750.000000  0       4527090.830      -1747657.472       5130501.761
10 0 59638  57780.000000  0       4653309.407      -1858224.455       4976502.367
10 0 59638  57810.000000  0       4774339.183      -1967452.266       4817430.844
10 0 59638  57840.000000  0       4890062.995      -2075207.075       4653448.458
10 0 59638  57870.000000  0       5000369.595      -2181356.005       4484721.546
10 0 59638  57900.000000  0       5105153.766      -2285767.299       4311421.349
10 0 59638  57930.000000  0       5204316.429      -2388310.477       4133723.843
10 0 59638  57960.000000  0       5297764.750      -2488856.504       3951809.562
10 0 59638  57990.000000  0       5385412.228      -2587277.949       3765863.415
10 0 59638  58020.000000  0       5467178.785      -2683449.146       3576074.499
10 0 59638  58050.000000  0       5542990.842      -2777246.352       3382635.906
10 0 59638  58080.000000  0       5612781.395      -2868547.906       3185744.530
10 0 59638  58110.000000  0       5676490.076      -2957234.384       2985600.868
10 0 59638  58140.000000  0       5734063.213      -3043188.755       2782408.812
10 0 59638  58170.000000  0       5785453.882      -3126296.533       2576375.444
10 0 59638  58200.000000  0       5830621.943      -3206445.925       2367710.825
10 0 59638  58230.000000  0       5869534.084      -3283527.982       2156627.776
10 0 59638  58260.000000  0       5902163.848      -3357436.743       1943341.665
10 0 59638  58290.000000  0       5928491.651      -3428069.385       1728070.173
10 0 59638  58320.000000  0       5948504.797      -3495326.354       1511033.068
10 0 59638  58350.000000  0       5962197.472      -3559111.504       1292451.974
10 0 59638  58380.000000  0       5969570.738      -3619332.223       1072550.136
10 0 59638  58410.000000  0       5970632.523      -3675899.560        851552.199
10 0 59638  58440.000000  0       5965397.595      -3728728.350        629683.966
10 0 59638  58470.000000  0       5953887.544      -3777737.336        407172.166
10 0 59638  58500.000000  0       5936130.741      -3822849.285        184244.213
10 0 59638  58530.000000  0       5912162.294      -3863991.101        -38872.040
10 0 59638  58560.000000  0       5882023.991      -3901093.928       -261948.540
10 0 59638  58590.000000  0       5845764.238      -3934093.250       -484757.280
10 0 59638  58620.000000  0       5803437.986      -3962928.984       -707070.530
10 0 59638  58650.000000  0       5755106.655      -3987545.568       -928661.085
10 0 59638  58680.000000  0       5700838.055      -4007892.050      -1149302.493
10 0 59638  58710.000000  0       5640706.290      -4023922.161      -1368769.307
10 0 59638  58740.000000  0       5574791.660      -4035594.393      -1586837.312
10 0 59638  58770.000000  0       5503180.552      -4042872.067      -1803283.767
10 0 59638  58800.000000  0       5425965.324      -4045723.392      -2017887.632
10 0 59638  58830.000000  0       5343244.191      -4044121.525      -2230429.803
10 0 59638  58860.000000  0       5255121.092      -4038044.619      -2440693.337
10 0 59638  58890.000000  0       5161705.565      -4027475.868      -2648463.682
10 0 59638  58920.000000  0       5063112.603      -4012403.547      -2853528.900
10 0 59638  58950.000000  0       4959462.506      -3992821.040      -3055679.889
10 0 59638  58980.000000  0       4850880.736      -3968726.865      -3254710.596
10 0 59638  59010.000000  0       4737497.750      -3940124.696      -3450418.227
10 0 59638  59040.000000  0       4619448.847      -3907023.376      -3642603.459
10 0 59638  59070.000000  0       4496873.999      -3869436.924      -3831070.638
10 0 59638  59100.000000  0       4369917.680      -3827384.538      -4015627.986
10 0 59638  59130.000000  0       4238728.686      -3780890.587      -4196087.790
10 0 59638  59160.000000  0       4103459.963      -3729984.599      -4372266.596
10 0 59638  59190.000000  0       3964268.416      -3674701.247      -4543985.392
10 0 59638  59220.000000  0       3821314.722      -3615080.319      -4711069.786
10 0 59638  59250.000000  0       3674763.142      -3551166.691      -4873350.180
10 0 59638  59280.000000  0       3524781.325      -3483010.294      -5030661.937
10 0 59638  59310.000000  0       3371540.112      -3410666.069      -5182845.544
10 0 59638  59340.000000  0       3215213.337      -3334193.922      -5329746.766
10 0 59638  59370.000000  0       3055977.626      -3253658.673      -5471216.795
10 0 59638  59400.000000  0       2894012.195      -3169129.997      -5607112.395
10 0 59638  59430.000000  0       2729498.648      -3080682.367      -5737296.039
10 0 59638  59460.000000  0       2562620.769      -2988394.980      -5861636.046
10 0 59638  59490.000000  0       2393564.318      -2892351.690      -5980006.706
10 0 59638  59520.000000  0       2222516.822      -2792640.928      -6092288.405
10 0 59638  59550.000000  0       2049667.361      -2689355.613      -6198367.741
10 0 59638  59580.000000  0       1875206.361      -2582593.068      -6298137.632
10 0 59638  59610.000000  0       1699325.379      -2472454.920      -6391497.423
10 0 59638  59640.000000  0       1522216.891      -2359047.000      -6478352.971
10 0 59638  59670.000000  0       1344074.080      -2242479.238      -6558616.743
10 0 59638  59700.000000  0       1165090.628      -2122865.551      -6632207.886
10 0 59638  59730.000000  0        985460.503      -2000323.734      -6699052.304
10 0 59638  59760.000000  0        805377.754      -1874975.343      -6759082.731
10 0 59638  59790.000000  0        625036.298      -1746945.573      -6812238.785
10 0 59638  59820.000000  0        444629.714      -1616363.130      -6858467.030
10 0 59638  59850.000000  0        264351.038      -1483360.106      -6897721.020
10 0 59638  59880.000000  0         84392.558      -1348071.837      -6929961.337
10 0 59638  59910.000000  0        -95054.387      -1210636.774      -6955155.631
10 0 59638  59940.000000  0       -273799.605      -1071196.338      -6973278.648
10 0 59638  59970.000000  0       -451654.252       -929894.782      -6984312.254
10 0 59638  60000.000000  0       -628431.030       -786879.037      -6988245.453
10 0 59638  60030.000000  0       -803944.383       -642298.561      -6985074.396
10 0 59638  60060.000000  0       -978010.692       -496305.188      -6974802.383
10 0 59638  60090.000000  0      -1150448.462       -349052.965      -6957439.858
10 0 59638  60120.000000  0      -1321078.511       -200697.993      -6933004.397
10 0 59638  60150.000000  0      -1489724.152        -51398.269      -6901520.692
10 0 59638  60180.000000  0      -1656211.376         98686.488      -6863020.527
10 0 59638  60210.000000  0      -1820369.029        249394.997      -6817542.751
10 0 59638  60240.000000  0      -1982028.984        400564.591      -6765133.237
10 0 59638  60270.000000  0      -2141026.314        552031.389      -6705844.843
10 0 59638  60300.000000  0      -2297199.456        703630.471      -6639737.363
10 0 59638  60330.000000  0      -2450390.376        855196.057      -6566877.473
10 0 59638  60360.000000  0      -2600444.731       1006561.684      -6487338.664
10 0 59638  60390.000000  0      -2747212.019       1157560.385      -6401201.180
10 0 59638  60420.000000  0      -2890545.737       1308024.876      -6308551.941
10 0 59638  60450.000000  0      -3030303.526       1457787.733      -6209484.466
10 0 59638  60480.000000  0      -3166347.314       1606681.584      -6104098.783
10 0 59638  60510.000000  0      -3298543.460       1754539.291      -5992501.340
10 0 59638  60540.000000  0      -3426762.886       1901194.139      -5874804.901
10 0 59638  60570.000000  0      -3550881.207       2046480.025      -5751128.443
10 0 59638  60600.000000  0      -3670778.857       2190231.645      -5621597.038
10 0 59638  60630.000000  0      -3786341.213       2332284.687      -5486341.737
10 0 59638  60660.000000  0      -3897458.702       2472476.015      -5345499.440
10 0 59638  60690.000000  0      -4004026.913       2610643.860      -5199212.762
10 0 59638  60720.000000  0      -4105946.704       2746628.007      -5047629.895
10 0 59638  60750.000000  0      -4203124.290       2880269.984      -4890904.462
10 0 59638  60780.000000  0      -4295471.342       3011413.241      -4729195.367
10 0 59638  60810.000000  0      -4382905.063       3139903.343      -4562666.638
10 0 59638  60840.000000  0      -4465348.273       3265588.147      -4391487.267
10 0 59638  60870.000000  0      -4542729.477       3388317.988      -4215831.045
10 0 59638  60900.000000  0      -4614982.935       3507945.860      -4035876.391
10 0 59638  60930.000000  0      -4682048.720       3624327.595      -3851806.169
10 0 59638  60960.000000  0      -4743872.776       3737322.039      -3663807.513
10 0 59638  60990.000000  0      -4800406.961       3846791.226      -3472071.628
10 0 59638  61020.000000  0      -4851609.091       3952600.548      -3276793.604
10 0 59638  61050.000000  0      -4897442.972       4054618.923      -3078172.210
10 0 59638  61080.000000  0      -4937878.424       4152718.958      -2876409.694
10 0 59638  61110.000000  0      -4972891.297       4246777.107      -2671711.582
10 0 59638  61140.000000  0      -5002463.491       4336673.832      -2464286.464
10 0 59638  61170.000000  0      -5026582.959       4422293.752      -2254345.783
99
